[{"OBJECT_NAME":"STARLINK-4350","OBJECT_ID":"2022-077C","EPOCH":"2026-03-09T22:20:49.918848","MEAN_MOTION":15.0565129,"ECCENTRICITY":0.00015783,"INCLINATION":97.6027,"RA_OF_ASC_NODE":251.4606,"ARG_OF_PERICENTER":86.2761,"MEAN_ANOMALY":273.8646,"EPHEMERIS_TYPE":0,"CLASSIFICATION_TYPE":"U","NORAD_CAT_ID":53045,"ELEMENT_SET_NO":999,"REV_AT_EPOCH":20102,"BSTAR":1.9001185e-5,"MEAN_MOTION_DOT":2.13e-6,"MEAN_MOTION_DDOT":0},{"OBJECT_NAME":"COSMOS 2251 DEB","OBJECT_ID":"1993-036GR","EPOCH":"2026-03-09T03:51:30.155616","MEAN_MOTION":15.03624382,"ECCENTRICITY":0.001162,"INCLINATION":74.0519,"RA_OF_ASC_NODE":328.1155,"ARG_OF_PERICENTER":228.8449,"MEAN_ANOMALY":281.5146,"EPHEMERIS_TYPE":0,"CLASSIFICATION_TYPE":"U","NORAD_CAT_ID":34006,"ELEMENT_SET_NO":999,"REV_AT_EPOCH":89963,"BSTAR":0.0037151817,"MEAN_MOTION_DOT":0.00051242,"MEAN_MOTION_DDOT":0}]
